{
  "norad_id": 58083,
  "name": "STARLINK-30551",
  "history": [
    {
      "epoch": "2026-03-28T16:44:14.712864Z",
      "apogee_km": 486.39380255758624,
      "perigee_km": 484.6766490401351,
      "latitude_deg": -1.3368590027948015e-06,
      "longitude_deg": -103.30182229712463,
      "height_km": 485.2849714882048,
      "semi_major_axis_km": 6863.67222579886,
      "eccentricity": 0.00012509,
      "inclination_deg": 43.0006,
      "raan_deg": 333.8736,
      "arg_perigee_deg": 271.801,
      "mean_anomaly_deg": 88.2698,
      "mean_motion_rev_day": 15.26750105
    },
    {
      "epoch": "2026-03-29T00:35:16.746432Z",
      "apogee_km": 486.40062883737755,
      "perigee_km": 484.6380418904564,
      "latitude_deg": -1.2557310730445638e-05,
      "longitude_deg": 136.7724811885734,
      "height_km": 485.2829702275454,
      "semi_major_axis_km": 6863.656335363917,
      "eccentricity": 0.0001284,
      "inclination_deg": 43.001,
      "raan_deg": 332.0288,
      "arg_perigee_deg": 270.856,
      "mean_anomaly_deg": 89.2144,
      "mean_motion_rev_day": 15.26755407
    },
    {
      "epoch": "2026-03-29T22:34:10.836480Z",
      "apogee_km": 486.1519634985634,
      "perigee_km": 484.85899052874447,
      "latitude_deg": -2.41218338700868e-05,
      "longitude_deg": 160.97733812023816,
      "height_km": 485.2913491464412,
      "semi_major_axis_km": 6863.642477013654,
      "eccentricity": 9.419e-05,
      "inclination_deg": 42.9988,
      "raan_deg": 326.8618,
      "arg_perigee_deg": 269.1478,
      "mean_anomaly_deg": 90.9265,
      "mean_motion_rev_day": 15.26760031
    },
    {
      "epoch": "2026-03-30T22:07:19.125696Z",
      "apogee_km": 486.2620387975958,
      "perigee_km": 484.90508124287953,
      "latitude_deg": -9.376811510818112e-08,
      "longitude_deg": 161.19176774538928,
      "height_km": 485.35693063177325,
      "semi_major_axis_km": 6863.720560020237,
      "eccentricity": 9.885e-05,
      "inclination_deg": 42.9996,
      "raan_deg": 321.328,
      "arg_perigee_deg": 270.2549,
      "mean_anomaly_deg": 89.8189,
      "mean_motion_rev_day": 15.26733978
    },
    {
      "epoch": "2026-03-31T21:40:26.891328Z",
      "apogee_km": 486.5768684539389,
      "perigee_km": 484.5740371602096,
      "latitude_deg": -6.468015245901975e-06,
      "longitude_deg": 161.4061527828031,
      "height_km": 485.351407236934,
      "semi_major_axis_km": 6863.712452807074,
      "eccentricity": 0.0001459,
      "inclination_deg": 43.0001,
      "raan_deg": 315.792,
      "arg_perigee_deg": 270.051,
      "mean_anomaly_deg": 90.0174,
      "mean_motion_rev_day": 15.26736683
    }
  ]
}